{"type": "FeatureCollection", "features": [ {"type": "Feature", "properties": {"norad_id": 34965, "name": "COSMOS 2251 DEB", "group": "cosmos-2251-debris", "lat": -40.02710000597254, "lon": -15.968096504174804, "alt_km": 725.9472737584229, "timestamp": "2025-12-01T03:58:49.146810+00:00", "meta": {"OBJECT_NAME": "COSMOS 2251 DEB", "OBJECT_ID": "1993-036AEU", "EPOCH": "2025-11-30T18:40:11.369568", "MEAN_MOTION": 14.48655386, "ECCENTRICITY": 0.0026504, "INCLINATION": 74.0496, "RA_OF_ASC_NODE": 150.859, "ARG_OF_PERICENTER": 279.8745, "MEAN_ANOMALY": 79.9422, "EPHEMERIS_TYPE": 0, "CLASSIFICATION_TYPE": "U", "NORAD_CAT_ID": 34965, "ELEMENT_SET_NO": 999, "REV_AT_EPOCH": 86940, "BSTAR": 0.00030836, "MEAN_MOTION_DOT": 1.138e-05, "MEAN_MOTION_DDOT": 0, "GROUP": "cosmos-2251-debris"}, "tle": {"line1": "1 34965U 93036AEU 25334.77790937  .00001138  00000+0  30836-3 0  9999", "line2": "2 34965  74.0496 150.8590 0026504 279.8745  79.9422 14.48655386869406"}}, "geometry": {"type": "Point", "coordinates": [-15.968096504174804, -40.02710000597254]}}, {"type": "Feature", "properties": {"norad_id": 34967, "name": "COSMOS 2251 DEB", "group": "cosmos-2251-debris", "lat": -40.00058324320364, "lon": -98.48968640818028, "alt_km": 758.462775533726, "timestamp": "2025-12-01T03:58:49.146821+00:00", "meta": {"OBJECT_NAME": "COSMOS 2251 DEB", "OBJECT_ID": "1993-036AEW", "EPOCH": "2025-11-29T13:56:09.293568", "MEAN_MOTION": 14.44159053, "ECCENTRICITY": 0.00374039, "INCLINATION": 73.9933, "RA_OF_ASC_NODE": 278.4039, "ARG_OF_PERICENTER": 68.1034, "MEAN_ANOMALY": 292.4093, "EPHEMERIS_TYPE": 0, "CLASSIFICATION_TYPE": "U", "NORAD_CAT_ID": 34967, "ELEMENT_SET_NO": 999, "REV_AT_EPOCH": 64767, "BSTAR": 0.00071383894, "MEAN_MOTION_DOT": 2.443e-05, "MEAN_MOTION_DDOT": 0, "GROUP": "cosmos-2251-debris"}, "tle": {"line1": "1 34967U 93036AEW 25333.58066312  .00002443  00000+0  71384-3 0  9995", "line2": "2 34967  73.9933 278.4039 0037403  68.1034 292.4093 14.44159053647672"}}, "geometry": {"type": "Point", "coordinates": [-98.48968640818028, -40.00058324320364]}}, {"type": "Feature", "properties": {"norad_id": 34968, "name": "COSMOS 2251 DEB", "group": "cosmos-2251-debris", "lat": -72.16526843522355, "lon": 151.94930811622024, "alt_km": 741.5255667257234, "timestamp": "2025-12-01T03:58:49.146833+00:00", "meta": {"OBJECT_NAME": "COSMOS 2251 DEB", "OBJECT_ID": "1993-036AEX", "EPOCH": "2025-11-29T12:56:34.084032", "MEAN_MOTION": 14.59365765, "ECCENTRICITY": 0.00861526, "INCLINATION": 74.0387, "RA_OF_ASC_NODE": 272.2297, "ARG_OF_PERICENTER": 36.0589, "MEAN_ANOMALY": 324.6345, "EPHEMERIS_TYPE": 0, "CLASSIFICATION_TYPE": "U", "NORAD_CAT_ID": 34968, "ELEMENT_SET_NO": 999, "REV_AT_EPOCH": 88285, "BSTAR": 0.00018869689, "MEAN_MOTION_DOT": 9.09e-06, "MEAN_MOTION_DDOT": 0, "GROUP": "cosmos-2251-debris"}, "tle": {"line1": "1 34968U 93036AEX 25333.53928338  .00000909  00000+0  18870-3 0  9992", "line2": "2 34968  74.0387 272.2297 0086152  36.0589 324.6345 14.59365765882854"}}, "geometry": {"type": "Point", "coordinates": [151.94930811622024, -72.16526843522355]}}, {"type": "Feature", "properties": {"norad_id": 34969, "name": "COSMOS 2251 DEB", "group": "cosmos-2251-debris", "lat": 40.66092699505165, "lon": 58.54760535034332, "alt_km": 819.8487883841253, "timestamp": "2025-12-01T03:58:49.146843+00:00", "meta": {"OBJECT_NAME": "COSMOS 2251 DEB", "OBJECT_ID": "1993-036AEY", "EPOCH": "2025-11-27T22:39:52.818912", "MEAN_MOTION": 14.32217313, "ECCENTRICITY": 0.0074445, "INCLINATION": 74.0147, "RA_OF_ASC_NODE": 50.1773, "ARG_OF_PERICENTER": 186.867, "MEAN_ANOMALY": 173.1469, "EPHEMERIS_TYPE": 0, "CLASSIFICATION_TYPE": "U", "NORAD_CAT_ID": 34969, "ELEMENT_SET_NO": 999, "REV_AT_EPOCH": 64925, "BSTAR": 0.00041332, "MEAN_MOTION_DOT": 1.123e-05, "MEAN_MOTION_DDOT": 0, "GROUP": "cosmos-2251-debris"}, "tle": {"line1": "1 34969U 93036AEY 25331.94436133  .00001123  00000+0  41332-3 0  9991", "line2": "2 34969  74.0147  50.1773 0074445 186.8670 173.1469 14.32217313649253"}}, "geometry": {"type": "Point", "coordinates": [58.54760535034332, 40.66092699505165]}}, {"type": "Feature", "properties": {"norad_id": 34971, "name": "COSMOS 2251 DEB", "group": "cosmos-2251-debris", "lat": 55.32794452104969, "lon": 102.47527896417144, "alt_km": 672.6977838339462, "timestamp": "2025-12-01T03:58:49.146853+00:00", "meta": {"OBJECT_NAME": "COSMOS 2251 DEB", "OBJECT_ID": "1993-036AFA", "EPOCH": "2025-11-29T07:11:19.070592", "MEAN_MOTION": 14.55599596, "ECCENTRICITY": 0.00702055, "INCLINATION": 73.9779, "RA_OF_ASC_NODE": 310.5688, "ARG_OF_PERICENTER": 179.6355, "MEAN_ANOMALY": 246.2889, "EPHEMERIS_TYPE": 0, "CLASSIFICATION_TYPE": "U", "NORAD_CAT_ID": 34971, "ELEMENT_SET_NO": 999, "REV_AT_EPOCH": 65977, "BSTAR": 0.00017615649, "MEAN_MOTION_DOT": 7.63e-06, "MEAN_MOTION_DDOT": 0, "GROUP": "cosmos-2251-debris"}, "tle": {"line1": "1 34971U 93036AFA 25333.29952628  .00000763  00000+0  17616-3 0  9993", "line2": "2 34971  73.9779 310.5688 0070205 179.6355 246.2889 14.55599596659770"}}, "geometry": {"type": "Point", "coordinates": [102.47527896417144, 55.32794452104969]}}, {"type": "Feature", "properties": {"norad_id": 34972, "name": "COSMOS 2251 DEB", "group": "cosmos-2251-debris", "lat": 19.25010291637081, "lon": 78.21699296545148, "alt_km": 673.3480056273811, "timestamp": "2025-12-01T03:58:49.146865+00:00", "meta": {"OBJECT_NAME": "COSMOS 2251 DEB", "OBJECT_ID": "1993-036AFB", "EPOCH": "2025-11-30T17:09:56.666016", "MEAN_MOTION": 14.72523272, "ECCENTRICITY": 0.0034602, "INCLINATION": 73.9868, "RA_OF_ASC_NODE": 73.3405, "ARG_OF_PERICENTER": 233.592, "MEAN_ANOMALY": 278.6357, "EPHEMERIS_TYPE": 0, "CLASSIFICATION_TYPE": "U", "NORAD_CAT_ID": 34972, "ELEMENT_SET_NO": 999, "REV_AT_EPOCH": 87473, "BSTAR": 0.0017766, "MEAN_MOTION_DOT": 0.00011381, "MEAN_MOTION_DDOT": 0, "GROUP": "cosmos-2251-debris"}, "tle": {"line1": "1 34972U 93036AFB 25334.71523919  .00011381  00000+0  17766-2 0  9992", "line2": "2 34972  73.9868  73.3405 0034602 233.5920 278.6357 14.72523272874731"}}, "geometry": {"type": "Point", "coordinates": [78.21699296545148, 19.25010291637081]}}, {"type": "Feature", "properties": {"norad_id": 34976, "name": "COSMOS 2251 DEB", "group": "cosmos-2251-debris", "lat": -37.17682481187372, "lon": -43.631163000660344, "alt_km": 629.0313876618002, "timestamp": "2025-12-01T03:58:49.146877+00:00", "meta": {"OBJECT_NAME": "COSMOS 2251 DEB", "OBJECT_ID": "1993-036AFF", "EPOCH": "2025-11-30T10:58:49.052352", "MEAN_MOTION": 14.76173817, "ECCENTRICITY": 0.00477329, "INCLINATION": 74.0576, "RA_OF_ASC_NODE": 330.2738, "ARG_OF_PERICENTER": 19.6664, "MEAN_ANOMALY": 139.2577, "EPHEMERIS_TYPE": 0, "CLASSIFICATION_TYPE": "U", "NORAD_CAT_ID": 34976, "ELEMENT_SET_NO": 999, "REV_AT_EPOCH": 88092, "BSTAR": 0.0013081482, "MEAN_MOTION_DOT": 9.193e-05, "MEAN_MOTION_DDOT": 0, "GROUP": "cosmos-2251-debris"}, "tle": {"line1": "1 34976U 93036AFF 25334.45751218  .00009193  00000+0  13081-2 0  9996", "line2": "2 34976  74.0576 330.2738 0047732  19.6664 139.2577 14.76173817880927"}}, "geometry": {"type": "Point", "coordinates": [-43.631163000660344, -37.17682481187372]}}, {"type": "Feature", "properties": {"norad_id": 34979, "name": "COSMOS 2251 DEB", "group": "cosmos-2251-debris", "lat": -67.03944693554658, "lon": 152.52494141652133, "alt_km": 655.1031922103384, "timestamp": "2025-12-01T03:58:49.146887+00:00", "meta": {"OBJECT_NAME": "COSMOS 2251 DEB", "OBJECT_ID": "1993-036AFJ", "EPOCH": "2025-11-30T07:21:20.655648", "MEAN_MOTION": 14.78945164, "ECCENTRICITY": 0.004922, "INCLINATION": 74.0387, "RA_OF_ASC_NODE": 291.7167, "ARG_OF_PERICENTER": 12.3323, "MEAN_ANOMALY": 347.9044, "EPHEMERIS_TYPE": 0, "CLASSIFICATION_TYPE": "U", "NORAD_CAT_ID": 34979, "ELEMENT_SET_NO": 999, "REV_AT_EPOCH": 88036, "BSTAR": 0.0016800407, "MEAN_MOTION_DOT": 0.00012641, "MEAN_MOTION_DDOT": 0, "GROUP": "cosmos-2251-debris"}, "tle": {"line1": "1 34979U 93036AFJ 25334.30648907  .00012641  00000+0  16800-2 0  9997", "line2": "2 34979  74.0387 291.7167 0049220  12.3323 347.9044 14.78945164880362"}}, "geometry": {"type": "Point", "coordinates": [152.52494141652133, -67.03944693554658]}}, {"type": "Feature", "properties": {"norad_id": 34990, "name": "COSMOS 2251 DEB", "group": "cosmos-2251-debris", "lat": 74.03120053403848, "lon": 4.1308120188796495, "alt_km": 748.0610008928479, "timestamp": "2025-12-01T03:58:49.146897+00:00", "meta": {"OBJECT_NAME": "COSMOS 2251 DEB", "OBJECT_ID": "1993-036AFN", "EPOCH": "2025-11-30T02:35:36.793536", "MEAN_MOTION": 14.42317714, "ECCENTRICITY": 0.00161518, "INCLINATION": 74.0452, "RA_OF_ASC_NODE": 274.7497, "ARG_OF_PERICENTER": 338.715, "MEAN_ANOMALY": 21.3332, "EPHEMERIS_TYPE": 0, "CLASSIFICATION_TYPE": "U", "NORAD_CAT_ID": 34990, "ELEMENT_SET_NO": 999, "REV_AT_EPOCH": 87164, "BSTAR": 0.00051741405, "MEAN_MOTION_DOT": 1.685e-05, "MEAN_MOTION_DDOT": 0, "GROUP": "cosmos-2251-debris"}, "tle": {"line1": "1 34990U 93036AFN 25334.10806474  .00001685  00000+0  51741-3 0  9993", "line2": "2 34990  74.0452 274.7497 0016151 338.7150  21.3332 14.42317714871644"}}, "geometry": {"type": "Point", "coordinates": [4.1308120188796495, 74.03120053403848]}}]}